IRIDIUM 63              
1 25286U 98021B   25304.62965490  .00000601  00000+0  19750-3 0  9999
2 25286  86.4025  24.8750 0002110 100.1727 259.9708 14.36682999443433
IRIDIUM 69              
1 25319U 98026A   25304.63934083  .00000872  00000+0  26458-3 0  9999
2 25319  86.4008  37.7262 0000768 354.6701   5.4490 14.41141993442719
IRIDIUM 71              
1 25320U 98026B   25304.62953301  .00000478  00000+0  14191-3 0  9997
2 25320  86.4011  32.4069 0002831  45.9371 314.2061 14.41277737443248
IRIDIUM 73              
1 25344U 98032C   25304.60147412  .00000783  00000+0  18913-3 0  9991
2 25344  86.4437 348.8972 0001654 101.0638 259.0754 14.51907214450351
IRIDIUM 82              
1 25467U 98051A   25304.59548796  .00058784  00000+0  12545-2 0  9994
2 25467  86.3646  42.2372 0069926 135.9040 224.7821 15.42008349444894
